SL-16 R/B               
1 25407U 98045B   26073.58812647  .00000304  00000+0  17759-3 0  9991
2 25407  71.0121 171.2737 0007070   0.4072 359.7056 14.16192835427791
ISS (ZARYA)             
1 25544U 98067A   26073.41792243  .00009990  00000+0  19399-3 0  9990
2 25544  51.6328  48.9797 0006389 189.6380 170.4486 15.48274195557061
CZ-4B R/B               
1 25732U 99025C   26073.62481764  .00000078  00000+0  58478-4 0  9990
2 25732  98.6617 117.7893 0036488 332.2845 195.9348 14.18266455388864
OKEAN-O                 
1 25860U 99039A   26073.58627559  .00000846  00000+0  11783-3 0  9996
2 25860  97.9431 133.4277 0001103  71.5489 288.5843 14.80344785435118
SL-16 R/B               
1 25861U 99039B   26073.15635356  .00000650  00000+0  89187-4 0  9991
2 25861  97.9957 132.2464 0013642 240.1784 119.8073 14.81738421437523
DELTA 2 R/B             
1 25876U 99041E   26073.60959667  .00001428  00000+0  26804-3 0  9994
2 25876  51.7619 281.6284 0502492   2.9438 357.4267 14.11854461363728
HELIOS 1B               
1 25977U 99064A   26073.62370947  .00002180  00000+0  24559-3 0  9992
2 25977  98.1688 336.0117 0002376  68.5976 291.5492 14.87722040685996
TERRA                   
1 25994U 99068A   26073.66505179  .00000525  00000+0  11608-3 0  9998
2 25994  97.9583 126.9095 0002996 140.3198  19.5937 14.61020819395807
SL-16 R/B               
1 26070U 00006B   26073.46350521 -.00000196  00000+0 -75490-4 0  9991
2 26070  71.0004  87.7988 0016486 183.0564 177.0461 14.15824818349237
TITAN 4B R/B            
1 26474U 00047B   26073.46704033  .00005880  00000+0  36658-3 0  9990
2 26474  67.9904  27.0755 0038689  29.7674 330.5665 15.09616206393633
ENVISAT                 
1 27386U 02009A   26073.48981661  .00000139  00000+0  58853-4 0  9993
2 27386  98.3734  26.9730 0001316  83.2381  32.8787 14.39038864259866
IDEFIX & ARIANE 42P R/B 
1 27422U 02021B   26073.53009456  .00000322  00000+0  13884-3 0  9995
2 27422  98.5873  12.0787 0011858 167.7958 192.3515 14.31029973244713
