CCSDS_OMM_VERS = 2.0
CREATION_DATE  = 
ORIGINATOR     = 

OBJECT_NAME    = SL-16 R/B
OBJECT_ID      = 1998-045B
CENTER_NAME    = EARTH
REF_FRAME      = TEME
TIME_SYSTEM    = UTC
MEAN_ELEMENT_THEORY = SGP/SGP4

EPOCH          = 2026-03-14T14:06:54.127008
MEAN_MOTION    = 14.16192835
ECCENTRICITY   = .00070701
INCLINATION    = 71.0121
RA_OF_ASC_NODE = 171.2737
ARG_OF_PERICENTER = 0.4072
MEAN_ANOMALY   = 359.7056

EPHEMERIS_TYPE = 0
CLASSIFICATION_TYPE = U
NORAD_CAT_ID   = 25407
ELEMENT_SET_NO = 999
REV_AT_EPOCH   = 42779
BSTAR          = .17759094E-3
MEAN_MOTION_DOT = .304E-5
MEAN_MOTION_DDOT = 0

CCSDS_OMM_VERS = 2.0
CREATION_DATE  = 
ORIGINATOR     = 

OBJECT_NAME    = ISS (ZARYA)
OBJECT_ID      = 1998-067A
CENTER_NAME    = EARTH
REF_FRAME      = TEME
TIME_SYSTEM    = UTC
MEAN_ELEMENT_THEORY = SGP/SGP4

EPOCH          = 2026-03-14T10:01:48.497952
MEAN_MOTION    = 15.48274195
ECCENTRICITY   = .00063896
INCLINATION    = 51.6328
RA_OF_ASC_NODE = 48.9797
ARG_OF_PERICENTER = 189.6380
MEAN_ANOMALY   = 170.4486

EPHEMERIS_TYPE = 0
CLASSIFICATION_TYPE = U
NORAD_CAT_ID   = 25544
ELEMENT_SET_NO = 999
REV_AT_EPOCH   = 55706
BSTAR          = .19399232E-3
MEAN_MOTION_DOT = .999E-4
MEAN_MOTION_DDOT = 0

CCSDS_OMM_VERS = 2.0
CREATION_DATE  = 
ORIGINATOR     = 

OBJECT_NAME    = CZ-4B R/B
OBJECT_ID      = 1999-025C
CENTER_NAME    = EARTH
REF_FRAME      = TEME
TIME_SYSTEM    = UTC
MEAN_ELEMENT_THEORY = SGP/SGP4

EPOCH          = 2026-03-14T14:59:44.244096
MEAN_MOTION    = 14.18266455
ECCENTRICITY   = .00364884
INCLINATION    = 98.6617
RA_OF_ASC_NODE = 117.7893
ARG_OF_PERICENTER = 332.2845
MEAN_ANOMALY   = 195.9348

EPHEMERIS_TYPE = 0
CLASSIFICATION_TYPE = U
NORAD_CAT_ID   = 25732
ELEMENT_SET_NO = 999
REV_AT_EPOCH   = 38886
BSTAR          = .58477718E-4
MEAN_MOTION_DOT = .78E-6
MEAN_MOTION_DDOT = 0

CCSDS_OMM_VERS = 2.0
CREATION_DATE  = 
ORIGINATOR     = 

OBJECT_NAME    = OKEAN-O
OBJECT_ID      = 1999-039A
CENTER_NAME    = EARTH
REF_FRAME      = TEME
TIME_SYSTEM    = UTC
MEAN_ELEMENT_THEORY = SGP/SGP4

EPOCH          = 2026-03-14T14:04:14.210976
MEAN_MOTION    = 14.80344785
ECCENTRICITY   = .00011033
INCLINATION    = 97.9431
RA_OF_ASC_NODE = 133.4277
ARG_OF_PERICENTER = 71.5489
MEAN_ANOMALY   = 288.5843

EPHEMERIS_TYPE = 0
CLASSIFICATION_TYPE = U
NORAD_CAT_ID   = 25860
ELEMENT_SET_NO = 999
REV_AT_EPOCH   = 43511
BSTAR          = .11782835E-3
MEAN_MOTION_DOT = .846E-5
MEAN_MOTION_DDOT = 0

CCSDS_OMM_VERS = 2.0
CREATION_DATE  = 
ORIGINATOR     = 

OBJECT_NAME    = SL-16 R/B
OBJECT_ID      = 1999-039B
CENTER_NAME    = EARTH
REF_FRAME      = TEME
TIME_SYSTEM    = UTC
MEAN_ELEMENT_THEORY = SGP/SGP4

EPOCH          = 2026-03-14T03:45:08.947584
MEAN_MOTION    = 14.81738421
ECCENTRICITY   = .00136429
INCLINATION    = 97.9957
RA_OF_ASC_NODE = 132.2464
ARG_OF_PERICENTER = 240.1784
MEAN_ANOMALY   = 119.8073

EPHEMERIS_TYPE = 0
CLASSIFICATION_TYPE = U
NORAD_CAT_ID   = 25861
ELEMENT_SET_NO = 999
REV_AT_EPOCH   = 43752
BSTAR          = .89186619E-4
MEAN_MOTION_DOT = .65E-5
MEAN_MOTION_DDOT = 0

CCSDS_OMM_VERS = 2.0
CREATION_DATE  = 
ORIGINATOR     = 

OBJECT_NAME    = DELTA 2 R/B
OBJECT_ID      = 1999-041E
CENTER_NAME    = EARTH
REF_FRAME      = TEME
TIME_SYSTEM    = UTC
MEAN_ELEMENT_THEORY = SGP/SGP4

EPOCH          = 2026-03-14T14:37:49.152288
MEAN_MOTION    = 14.11854461
ECCENTRICITY   = .05024924
INCLINATION    = 51.7619
RA_OF_ASC_NODE = 281.6284
ARG_OF_PERICENTER = 2.9438
MEAN_ANOMALY   = 357.4267

EPHEMERIS_TYPE = 0
CLASSIFICATION_TYPE = U
NORAD_CAT_ID   = 25876
ELEMENT_SET_NO = 999
REV_AT_EPOCH   = 36372
BSTAR          = .26804184E-3
MEAN_MOTION_DOT = .1428E-4
MEAN_MOTION_DDOT = 0

CCSDS_OMM_VERS = 2.0
CREATION_DATE  = 
ORIGINATOR     = 

OBJECT_NAME    = HELIOS 1B
OBJECT_ID      = 1999-064A
CENTER_NAME    = EARTH
REF_FRAME      = TEME
TIME_SYSTEM    = UTC
MEAN_ELEMENT_THEORY = SGP/SGP4

EPOCH          = 2026-03-14T14:58:08.498208
MEAN_MOTION    = 14.87722040
ECCENTRICITY   = .00023761
INCLINATION    = 98.1688
RA_OF_ASC_NODE = 336.0117
ARG_OF_PERICENTER = 68.5976
MEAN_ANOMALY   = 291.5492

EPHEMERIS_TYPE = 0
CLASSIFICATION_TYPE = U
NORAD_CAT_ID   = 25977
ELEMENT_SET_NO = 999
REV_AT_EPOCH   = 68599
BSTAR          = .24558575E-3
MEAN_MOTION_DOT = .218E-4
MEAN_MOTION_DDOT = 0

CCSDS_OMM_VERS = 2.0
CREATION_DATE  = 
ORIGINATOR     = 

OBJECT_NAME    = TERRA
OBJECT_ID      = 1999-068A
CENTER_NAME    = EARTH
REF_FRAME      = TEME
TIME_SYSTEM    = UTC
MEAN_ELEMENT_THEORY = SGP/SGP4

EPOCH          = 2026-03-14T15:57:40.474656
MEAN_MOTION    = 14.61020819
ECCENTRICITY   = .00029962
INCLINATION    = 97.9583
RA_OF_ASC_NODE = 126.9095
ARG_OF_PERICENTER = 140.3198
MEAN_ANOMALY   = 19.5937

EPHEMERIS_TYPE = 0
CLASSIFICATION_TYPE = U
NORAD_CAT_ID   = 25994
ELEMENT_SET_NO = 999
REV_AT_EPOCH   = 39580
BSTAR          = .1160804E-3
MEAN_MOTION_DOT = .525E-5
MEAN_MOTION_DDOT = 0

CCSDS_OMM_VERS = 2.0
CREATION_DATE  = 
ORIGINATOR     = 

OBJECT_NAME    = SL-16 R/B
OBJECT_ID      = 2000-006B
CENTER_NAME    = EARTH
REF_FRAME      = TEME
TIME_SYSTEM    = UTC
MEAN_ELEMENT_THEORY = SGP/SGP4

EPOCH          = 2026-03-14T11:07:26.850144
MEAN_MOTION    = 14.15824818
ECCENTRICITY   = .0016486
INCLINATION    = 71.0004
RA_OF_ASC_NODE = 87.7988
ARG_OF_PERICENTER = 183.0564
MEAN_ANOMALY   = 177.0461

EPHEMERIS_TYPE = 0
CLASSIFICATION_TYPE = U
NORAD_CAT_ID   = 26070
ELEMENT_SET_NO = 999
REV_AT_EPOCH   = 34923
BSTAR          = -.75489621E-4
MEAN_MOTION_DOT = -.196E-5
MEAN_MOTION_DDOT = 0

CCSDS_OMM_VERS = 2.0
CREATION_DATE  = 
ORIGINATOR     = 

OBJECT_NAME    = TITAN 4B R/B
OBJECT_ID      = 2000-047B
CENTER_NAME    = EARTH
REF_FRAME      = TEME
TIME_SYSTEM    = UTC
MEAN_ELEMENT_THEORY = SGP/SGP4

EPOCH          = 2026-03-14T11:12:32.284512
MEAN_MOTION    = 15.09616206
ECCENTRICITY   = .00386897
INCLINATION    = 67.9904
RA_OF_ASC_NODE = 27.0755
ARG_OF_PERICENTER = 29.7674
MEAN_ANOMALY   = 330.5665

EPHEMERIS_TYPE = 0
CLASSIFICATION_TYPE = U
NORAD_CAT_ID   = 26474
ELEMENT_SET_NO = 999
REV_AT_EPOCH   = 39363
BSTAR          = .36658133E-3
MEAN_MOTION_DOT = .588E-4
MEAN_MOTION_DDOT = 0

CCSDS_OMM_VERS = 2.0
CREATION_DATE  = 
ORIGINATOR     = 

OBJECT_NAME    = ENVISAT
OBJECT_ID      = 2002-009A
CENTER_NAME    = EARTH
REF_FRAME      = TEME
TIME_SYSTEM    = UTC
MEAN_ELEMENT_THEORY = SGP/SGP4

EPOCH          = 2026-03-14T11:45:20.155104
MEAN_MOTION    = 14.39038864
ECCENTRICITY   = .00013168
INCLINATION    = 98.3734
RA_OF_ASC_NODE = 26.9730
ARG_OF_PERICENTER = 83.2381
MEAN_ANOMALY   = 32.8787

EPHEMERIS_TYPE = 0
CLASSIFICATION_TYPE = U
NORAD_CAT_ID   = 27386
ELEMENT_SET_NO = 999
REV_AT_EPOCH   = 25986
BSTAR          = .58852957E-4
MEAN_MOTION_DOT = .139E-5
MEAN_MOTION_DDOT = 0

CCSDS_OMM_VERS = 2.0
CREATION_DATE  = 
ORIGINATOR     = 

OBJECT_NAME    = IDEFIX & ARIANE 42P R/B
OBJECT_ID      = 2002-021B
CENTER_NAME    = EARTH
REF_FRAME      = TEME
TIME_SYSTEM    = UTC
MEAN_ELEMENT_THEORY = SGP/SGP4

EPOCH          = 2026-03-14T12:43:20.169984
MEAN_MOTION    = 14.31029973
ECCENTRICITY   = .00118588
INCLINATION    = 98.5873
RA_OF_ASC_NODE = 12.0787
ARG_OF_PERICENTER = 167.7958
MEAN_ANOMALY   = 192.3515

EPHEMERIS_TYPE = 0
CLASSIFICATION_TYPE = U
NORAD_CAT_ID   = 27422
ELEMENT_SET_NO = 999
REV_AT_EPOCH   = 24471
BSTAR          = .1388386E-3
MEAN_MOTION_DOT = .322E-5
MEAN_MOTION_DDOT = 0

